INTELSAT 21 (IS-21)     
1 38749U 12045A   26165.81980220 -.00000279  00000+0  00000+0 0  9990
2 38749   0.0174 329.7551 0001252 130.7827  39.7081  1.00270906 50508
INTELSAT 23 (IS-23)     
1 38867U 12057A   26165.82075552 -.00000279  00000+0  00000+0 0  9998
2 38867   0.0130 355.8895 0000354  82.7935  66.9048  1.00274390 49931
FM-6                    
1 39360U 13058A   26165.66566608 -.00000007  00000+0  00000+0 0  9997
2 39360   0.0029 353.6480 0002247 175.5302 217.0741  1.00259331 46041
INTELSAT 30 (IS-30)     
1 40271U 14062A   26165.59863112 -.00000144  00000+0  00000+0 0  9990
2 40271   0.0255  45.9943 0001322 332.4493   4.9109  1.00272254  6763
DIRECTV 14              
1 40333U 14078B   26165.59776446 -.00000118  00000+0  00000+0 0  9990
2 40333   0.0123  18.9709 0000378 251.3664 108.5087  1.00269975 42015
DIRECTV 15              
1 40663U 15026A   26165.66835274 -.00000096  00000+0  00000+0 0  9998
2 40663   0.0165  18.4213 0000285 276.0263 106.2537  1.00269725 40430
SKY MEXICO-1            
1 40664U 15026B   26165.53052530 -.00000227  00000+0  00000+0 0  9997
2 40664   0.0172 352.9897 0001956 112.4922 269.5400  1.00270798 40427
INTELSAT 34 (IS-34)     
1 40874U 15039A   26165.46383001 -.00000278  00000+0  00000+0 0  9992
2 40874   0.0105 335.3821 0000491 359.9880  38.8912  1.00273179 39601
INTELSAT 31 (IS-31)     
1 41581U 16035A   26165.81234882 -.00000145  00000+0  00000+0 0  9999
2 41581   0.0191 270.8106 0001147 341.9012 207.7942  1.00270405 36660
INTELSAT 36 (IS-36)     
1 41747U 16053A   26165.84481855 -.00000019  00000+0  00000+0 0  9990
2 41747   0.0108   2.9558 0002012 327.1608 305.6539  1.00271558 35935
INTELSAT 32E (IS-32E)   
1 41945U 17007B   26165.75148368 -.00000263  00000+0  00000+0 0  9990
2 41945   0.0078  34.2510 0000906 282.6748 173.4807  1.00270640 34206
INTELSAT 35E (IS-35E)   
1 42818U 17041A   26165.68187280  .00000000  00000+0  00000+0 0  9994
2 42818   0.0256  11.6725 0001533  69.5322  32.7564  1.00268183 32796
INTELSAT 37E (IS-37E)   
1 42950U 17059A   26165.82773485 -.00000135  00000+0  00000+0 0  9994
2 42950   0.0190  26.7818 0002346  80.8425  75.4942  1.00271816 32042
AZERSPACE 2 (IS-38)     
1 43632U 18074A   26165.84017394  .00000142  00000+0  00000+0 0  9999
2 43632   0.0007   4.1567 0001184  76.6275 169.9254  1.00269572 28421
HORIZONS-3E             
1 43633U 18074B   26165.65084600 -.00000024  00000+0  00000+0 0  9993
2 43633   0.0187 163.9480 0000967 106.2603  36.0409  1.00270601 28311
AT&T T-16               
1 44333U 19034A   26165.66869941 -.00000109  00000+0  00000+0 0  9992
2 44333   0.0162  50.3365 0000944 247.6371 104.8725  1.00269507 25607
INTELSAT 39 (IS-39)     
1 44476U 19049B   26165.90154840  .00000000  00000+0  00000+0 0  9997
2 44476   0.0254 353.5602 0000950 320.1053 336.0356  1.00270298 25103
GALAXY 30 (G-30)        
1 46114U 20056C   26165.73527693  .00000043  00000+0  00000+0 0  9996
2 46114   0.0177   7.5322 0002054  77.1559 318.0394  1.00270554 21260
GALAXY 33 (G-33)        
1 54026U 22128A   26165.73363028  .00000085  00000+0  00000+0 0  9995
2 54026   0.0133 348.4797 0001581  98.0955 307.5651  1.00271119 13710
GALAXY 34 (G-34)        
1 54027U 22128B   26165.73441028  .00000065  00000+0  00000+0 0  9991
2 54027   0.0147 347.5163 0001495 114.6989 296.2050  1.00275522 13886
GALAXY 31 (G-31)        
1 54243U 22153A   26165.66471272  .00000000  00000+0  00000+0 0  9994
2 54243   0.0199  20.5297 0000984  54.4153 306.3023  1.00270211  7106
GALAXY 32 (G-32)        
1 54244U 22153B   26165.59932447 -.00000167  00000+0  00000+0 0  9998
2 54244   0.0082 342.0111 0001980  54.9274 350.7184  1.00272447 13113
GALAXY 35 (G-35)        
1 54741U 22170A   26165.81286882  .00000000  00000+0  00000+0 0  9994
2 54741   0.0192   6.8645 0001768  79.4253  16.3428  1.00269151 12873
GALAXY 36 (G-36)        
1 54742U 22170B   26165.81356215 -.00000179  00000+0  00000+0 0  9991
2 54742   0.0412 119.6883 0002453 323.8905  23.4172  1.00270955 12754
GALAXY 37 (G-37)        
1 57493U 23112A   26165.66358605  .00000055  00000+0  00000+0 0  9994
2 57493   0.0212  54.5917 0001704  26.2739 293.9827  1.00271135 10514
