OBJECT_NAME,OBJECT_ID,EPOCH,MEAN_MOTION,ECCENTRICITY,INCLINATION,RA_OF_ASC_NODE,ARG_OF_PERICENTER,MEAN_ANOMALY,EPHEMERIS_TYPE,CLASSIFICATION_TYPE,NORAD_CAT_ID,ELEMENT_SET_NO,REV_AT_EPOCH,BSTAR,MEAN_MOTION_DOT,MEAN_MOTION_DDOT
INTELSAT 21 (IS-21),2012-045A,2026-06-14T19:40:30.910080,1.00270906,.0001252,0.0174,329.7551,130.7827,39.7081,0,U,38749,999,5050,0,-.279E-5,0
INTELSAT 23 (IS-23),2012-057A,2026-06-14T19:41:53.276928,1.00274390,.0000354,0.0130,355.8895,82.7935,66.9048,0,U,38867,999,4993,0,-.279E-5,0
FM-6,2013-058A,2026-06-14T15:58:33.549312,1.00259331,.0002247,0.0029,353.6480,175.5302,217.0741,0,U,39360,999,4604,0,-.7E-7,0
INTELSAT 30 (IS-30),2014-062A,2026-06-14T14:22:01.728768,1.00272254,.0001322,0.0255,45.9943,332.4493,4.9109,0,U,40271,999,676,0,-.144E-5,0
DIRECTV 14,2014-078B,2026-06-14T14:20:46.849344,1.00269975,.0000378,0.0123,18.9709,251.3664,108.5087,0,U,40333,999,4201,0,-.118E-5,0
DIRECTV 15,2015-026A,2026-06-14T16:02:25.676736,1.00269725,.0000285,0.0165,18.4213,276.0263,106.2537,0,U,40663,999,4043,0,-.96E-6,0
SKY MEXICO-1,2015-026B,2026-06-14T12:43:57.385920,1.00270798,.0001956,0.0172,352.9897,112.4922,269.5400,0,U,40664,999,4042,0,-.227E-5,0
INTELSAT 34 (IS-34),2015-039A,2026-06-14T11:07:54.912864,1.00273179,.0000491,0.0105,335.3821,359.9880,38.8912,0,U,40874,999,3960,0,-.278E-5,0
INTELSAT 31 (IS-31),2016-035A,2026-06-14T19:29:46.938048,1.00270405,.0001147,0.0191,270.8106,341.9012,207.7942,0,U,41581,999,3666,0,-.145E-5,0
INTELSAT 36 (IS-36),2016-053A,2026-06-14T20:16:32.322720,1.00271558,.0002012,0.0108,2.9558,327.1608,305.6539,0,U,41747,999,3593,0,-.19E-6,0
INTELSAT 32E (IS-32E),2017-007B,2026-06-14T18:02:08.189952,1.00270640,.0000906,0.0078,34.2510,282.6748,173.4807,0,U,41945,999,3420,0,-.263E-5,0
INTELSAT 35E (IS-35E),2017-041A,2026-06-14T16:21:53.809920,1.00268183,.0001533,0.0256,11.6725,69.5322,32.7564,0,U,42818,999,3279,0,0,0
INTELSAT 37E (IS-37E),2017-059A,2026-06-14T19:51:56.291040,1.00271816,.0002346,0.0190,26.7818,80.8425,75.4942,0,U,42950,999,3204,0,-.135E-5,0
AZERSPACE 2 (IS-38),2018-074A,2026-06-14T20:09:51.028416,1.00269572,.0001184,0.0007,4.1567,76.6275,169.9254,0,U,43632,999,2842,0,.142E-5,0
HORIZONS-3E,2018-074B,2026-06-14T15:37:13.094400,1.00270601,.0000967,0.0187,163.9480,106.2603,36.0409,0,U,43633,999,2831,0,-.24E-6,0
AT&T T-16,2019-034A,2026-06-14T16:02:55.629024,1.00269507,.0000944,0.0162,50.3365,247.6371,104.8725,0,U,44333,999,2560,0,-.109E-5,0
INTELSAT 39 (IS-39),2019-049B,2026-06-14T21:38:13.781760,1.00270298,.000095,0.0254,353.5602,320.1053,336.0356,0,U,44476,999,2510,0,0,0
GALAXY 30 (G-30),2020-056C,2026-06-14T17:38:47.926752,1.00270554,.0002054,0.0177,7.5322,77.1559,318.0394,0,U,46114,999,2126,0,.43E-6,0
GALAXY 33 (G-33),2022-128A,2026-06-14T17:36:25.656192,1.00271119,.0001581,0.0133,348.4797,98.0955,307.5651,0,U,54026,999,1371,0,.85E-6,0
GALAXY 34 (G-34),2022-128B,2026-06-14T17:37:33.048192,1.00275522,.0001495,0.0147,347.5163,114.6989,296.2050,0,U,54027,999,1388,0,.65E-6,0
GALAXY 31 (G-31),2022-153A,2026-06-14T15:57:11.179008,1.00270211,.0000984,0.0199,20.5297,54.4153,306.3023,0,U,54243,999,710,0,0,0
GALAXY 32 (G-32),2022-153B,2026-06-14T14:23:01.634208,1.00272447,.000198,0.0082,342.0111,54.9274,350.7184,0,U,54244,999,1311,0,-.167E-5,0
GALAXY 35 (G-35),2022-170A,2026-06-14T19:30:31.866048,1.00269151,.0001768,0.0192,6.8645,79.4253,16.3428,0,U,54741,999,1287,0,0,0
GALAXY 36 (G-36),2022-170B,2026-06-14T19:31:31.769760,1.00270955,.0002453,0.0412,119.6883,323.8905,23.4172,0,U,54742,999,1275,0,-.179E-5,0
GALAXY 37 (G-37),2023-112A,2026-06-14T15:55:33.834720,1.00271135,.0001704,0.0212,54.5917,26.2739,293.9827,0,U,57493,999,1051,0,.55E-6,0
